{"type": "FeatureCollection", "features": [ {"type": "Feature", "properties": {"norad_id": 34529, "name": "IRIDIUM 33 DEB", "group": "iridium-33-debris", "lat": -40.819639169214746, "lon": -142.18088172926616, "alt_km": 760.8469356174592, "timestamp": "2025-12-14T11:29:50.445587+00:00", "meta": {"OBJECT_NAME": "IRIDIUM 33 DEB", "OBJECT_ID": "1997-051HW", "EPOCH": "2025-12-13T04:28:09.694848", "MEAN_MOTION": 14.40616367, "ECCENTRICITY": 0.00048664, "INCLINATION": 86.3641, "RA_OF_ASC_NODE": 35.2216, "ARG_OF_PERICENTER": 175.3623, "MEAN_ANOMALY": 184.7623, "EPHEMERIS_TYPE": 0, "CLASSIFICATION_TYPE": "U", "NORAD_CAT_ID": 34529, "ELEMENT_SET_NO": 999, "REV_AT_EPOCH": 88148, "BSTAR": 0.00016827646, "MEAN_MOTION_DOT": 5.56e-06, "MEAN_MOTION_DDOT": 0}, "tle": {"line1": "1 34529U 97051HW  25347.18622332  .00000556  00000+0  16828-3 0  9996", "line2": "2 34529  86.3641  35.2216 0004866 175.3623 184.7623 14.40616367881481"}}, "geometry": {"type": "Point", "coordinates": [-142.18088172926616, -40.819639169214746]}}, {"type": "Feature", "properties": {"norad_id": 34538, "name": "IRIDIUM 33 DEB", "group": "iridium-33-debris", "lat": 70.58867376672478, "lon": 15.441917403038458, "alt_km": 750.382249814782, "timestamp": "2025-12-14T11:29:50.445598+00:00", "meta": {"OBJECT_NAME": "IRIDIUM 33 DEB", "OBJECT_ID": "1997-051JF", "EPOCH": "2025-12-12T19:29:58.055136", "MEAN_MOTION": 14.42648871, "ECCENTRICITY": 0.0032777, "INCLINATION": 86.2773, "RA_OF_ASC_NODE": 5.524, "ARG_OF_PERICENTER": 327.8022, "MEAN_ANOMALY": 92.8362, "EPHEMERIS_TYPE": 0, "CLASSIFICATION_TYPE": "U", "NORAD_CAT_ID": 34538, "ELEMENT_SET_NO": 999, "REV_AT_EPOCH": 87757, "BSTAR": 0.0014020322, "MEAN_MOTION_DOT": 4.708e-05, "MEAN_MOTION_DDOT": 0}, "tle": {"line1": "1 34538U 97051JF  25346.81247749  .00004708  00000+0  14020-2 0  9994", "line2": "2 34538  86.2773   5.5240 0032777 327.8022  92.8362 14.42648871877573"}}, "geometry": {"type": "Point", "coordinates": [15.441917403038458, 70.58867376672478]}}, {"type": "Feature", "properties": {"norad_id": 34540, "name": "IRIDIUM 33 DEB", "group": "iridium-33-debris", "lat": -26.853233886141258, "lon": -55.06060469447188, "alt_km": 661.3872151407868, "timestamp": "2025-12-14T11:29:50.445608+00:00", "meta": {"OBJECT_NAME": "IRIDIUM 33 DEB", "OBJECT_ID": "1997-051JH", "EPOCH": "2025-12-13T10:09:27.980928", "MEAN_MOTION": 14.75351942, "ECCENTRICITY": 0.00165573, "INCLINATION": 86.3099, "RA_OF_ASC_NODE": 307.2946, "ARG_OF_PERICENTER": 156.7433, "MEAN_ANOMALY": 332.3414, "EPHEMERIS_TYPE": 0, "CLASSIFICATION_TYPE": "U", "NORAD_CAT_ID": 34540, "ELEMENT_SET_NO": 999, "REV_AT_EPOCH": 89031, "BSTAR": 0.0027224364, "MEAN_MOTION_DOT": 0.00018553, "MEAN_MOTION_DDOT": 0}, "tle": {"line1": "1 34540U 97051JH  25347.42324052  .00018553  00000+0  27224-2 0  9991", "line2": "2 34540  86.3099 307.2946 0016557 156.7433 332.3414 14.75351942890319"}}, "geometry": {"type": "Point", "coordinates": [-55.06060469447188, -26.853233886141258]}}, {"type": "Feature", "properties": {"norad_id": 34648, "name": "IRIDIUM 33 DEB", "group": "iridium-33-debris", "lat": 81.27453836718351, "lon": -54.464349913511924, "alt_km": 958.6501205161367, "timestamp": "2025-12-14T11:29:50.445618+00:00", "meta": {"OBJECT_NAME": "IRIDIUM 33 DEB", "OBJECT_ID": "1997-051JZ", "EPOCH": "2025-12-13T12:59:22.076736", "MEAN_MOTION": 14.1153805, "ECCENTRICITY": 0.01824486, "INCLINATION": 86.3896, "RA_OF_ASC_NODE": 281.6229, "ARG_OF_PERICENTER": 296.3909, "MEAN_ANOMALY": 61.8646, "EPHEMERIS_TYPE": 0, "CLASSIFICATION_TYPE": "U", "NORAD_CAT_ID": 34648, "ELEMENT_SET_NO": 999, "REV_AT_EPOCH": 84972, "BSTAR": 0.0076327189, "MEAN_MOTION_DOT": 0.00016233, "MEAN_MOTION_DDOT": 0}, "tle": {"line1": "1 34648U 97051JZ  25347.54122774  .00016233  00000+0  76327-2 0  9991", "line2": "2 34648  86.3896 281.6229 0182448 296.3909  61.8646 14.11538050849721"}}, "geometry": {"type": "Point", "coordinates": [-54.464349913511924, 81.27453836718351]}}, {"type": "Feature", "properties": {"norad_id": 34651, "name": "IRIDIUM 33 DEB", "group": "iridium-33-debris", "lat": -48.85782160073865, "lon": -35.89520409948837, "alt_km": 724.2646477709159, "timestamp": "2025-12-14T11:29:50.445628+00:00", "meta": {"OBJECT_NAME": "IRIDIUM 33 DEB", "OBJECT_ID": "1997-051KC", "EPOCH": "2025-12-13T04:06:39.786912", "MEAN_MOTION": 14.25830516, "ECCENTRICITY": 0.01420795, "INCLINATION": 86.283, "RA_OF_ASC_NODE": 140.394, "ARG_OF_PERICENTER": 202.5687, "MEAN_ANOMALY": 156.9218, "EPHEMERIS_TYPE": 0, "CLASSIFICATION_TYPE": "U", "NORAD_CAT_ID": 34651, "ELEMENT_SET_NO": 999, "REV_AT_EPOCH": 85902, "BSTAR": 0.0047329688, "MEAN_MOTION_DOT": 0.00012543, "MEAN_MOTION_DDOT": 0}, "tle": {"line1": "1 34651U 97051KC  25347.17129383  .00012543  00000+0  47330-2 0  9999", "line2": "2 34651  86.2830 140.3940 0142079 202.5687 156.9218 14.25830516859023"}}, "geometry": {"type": "Point", "coordinates": [-35.89520409948837, -48.85782160073865]}}, {"type": "Feature", "properties": {"norad_id": 34652, "name": "IRIDIUM 33 DEB", "group": "iridium-33-debris", "lat": 34.257975313009446, "lon": 156.72289233426025, "alt_km": 699.5783136742521, "timestamp": "2025-12-14T11:29:50.445638+00:00", "meta": {"OBJECT_NAME": "IRIDIUM 33 DEB", "OBJECT_ID": "1997-051KD", "EPOCH": "2025-12-13T10:53:19.328352", "MEAN_MOTION": 14.6207244, "ECCENTRICITY": 0.00258573, "INCLINATION": 86.3313, "RA_OF_ASC_NODE": 339.6838, "ARG_OF_PERICENTER": 295.7305, "MEAN_ANOMALY": 216.5238, "EPHEMERIS_TYPE": 0, "CLASSIFICATION_TYPE": "U", "NORAD_CAT_ID": 34652, "ELEMENT_SET_NO": 999, "REV_AT_EPOCH": 88494, "BSTAR": 0.001600164, "MEAN_MOTION_DOT": 8.095e-05, "MEAN_MOTION_DDOT": 0}, "tle": {"line1": "1 34652U 97051KD  25347.45369593  .00008095  00000+0  16002-2 0  9999", "line2": "2 34652  86.3313 339.6838 0025857 295.7305 216.5238 14.62072440884944"}}, "geometry": {"type": "Point", "coordinates": [156.72289233426025, 34.257975313009446]}}, {"type": "Feature", "properties": {"norad_id": 34690, "name": "IRIDIUM 33 DEB", "group": "iridium-33-debris", "lat": -35.14290311577238, "lon": 33.680246294927855, "alt_km": 711.4563300565369, "timestamp": "2025-12-14T11:29:50.445648+00:00", "meta": {"OBJECT_NAME": "IRIDIUM 33 DEB", "OBJECT_ID": "1997-051KM", "EPOCH": "2025-12-13T14:54:06.857280", "MEAN_MOTION": 14.55100621, "ECCENTRICITY": 0.00107565, "INCLINATION": 86.3785, "RA_OF_ASC_NODE": 36.6083, "ARG_OF_PERICENTER": 26.8254, "MEAN_ANOMALY": 125.7841, "EPHEMERIS_TYPE": 0, "CLASSIFICATION_TYPE": "U", "NORAD_CAT_ID": 34690, "ELEMENT_SET_NO": 999, "REV_AT_EPOCH": 88107, "BSTAR": 0.00059932597, "MEAN_MOTION_DOT": 2.608e-05, "MEAN_MOTION_DDOT": 0}, "tle": {"line1": "1 34690U 97051KM  25347.62091270  .00002608  00000+0  59933-3 0  9999", "line2": "2 34690  86.3785  36.6083 0010756  26.8254 125.7841 14.55100621881070"}}, "geometry": {"type": "Point", "coordinates": [33.680246294927855, -35.14290311577238]}}, {"type": "Feature", "properties": {"norad_id": 34693, "name": "IRIDIUM 33 DEB", "group": "iridium-33-debris", "lat": 69.35395428963498, "lon": 113.08136899412331, "alt_km": 469.3416742303107, "timestamp": "2025-12-14T11:29:50.445659+00:00", "meta": {"OBJECT_NAME": "IRIDIUM 33 DEB", "OBJECT_ID": "1997-051KQ", "EPOCH": "2025-12-13T15:21:24.941664", "MEAN_MOTION": 15.28226258, "ECCENTRICITY": 0.00136245, "INCLINATION": 86.3035, "RA_OF_ASC_NODE": 303.3785, "ARG_OF_PERICENTER": 52.3569, "MEAN_ANOMALY": 123.7828, "EPHEMERIS_TYPE": 0, "CLASSIFICATION_TYPE": "U", "NORAD_CAT_ID": 34693, "ELEMENT_SET_NO": 999, "REV_AT_EPOCH": 88928, "BSTAR": 0.0045164989, "MEAN_MOTION_DOT": 0.00126388, "MEAN_MOTION_DDOT": 0}, "tle": {"line1": "1 34693U 97051KQ  25347.63987201  .00126388  00000+0  45165-2 0  9994", "line2": "2 34693  86.3035 303.3785 0013624  52.3569 123.7828 15.28226258889284"}}, "geometry": {"type": "Point", "coordinates": [113.08136899412331, 69.35395428963498]}}, {"type": "Feature", "properties": {"norad_id": 34696, "name": "IRIDIUM 33 DEB", "group": "iridium-33-debris", "lat": 13.32204961480593, "lon": -154.19172184894302, "alt_km": 625.444511406934, "timestamp": "2025-12-14T11:29:50.445669+00:00", "meta": {"OBJECT_NAME": "IRIDIUM 33 DEB", "OBJECT_ID": "1997-051KT", "EPOCH": "2025-12-13T03:54:02.435616", "MEAN_MOTION": 14.65143747, "ECCENTRICITY": 0.00741248, "INCLINATION": 86.1855, "RA_OF_ASC_NODE": 27.3258, "ARG_OF_PERICENTER": 165.9902, "MEAN_ANOMALY": 260.687, "EPHEMERIS_TYPE": 0, "CLASSIFICATION_TYPE": "U", "NORAD_CAT_ID": 34696, "ELEMENT_SET_NO": 999, "REV_AT_EPOCH": 86679, "BSTAR": 0.0067723801, "MEAN_MOTION_DOT": 0.00038084, "MEAN_MOTION_DDOT": 0}, "tle": {"line1": "1 34696U 97051KT  25347.16252819  .00038084  00000+0  67724-2 0  9995", "line2": "2 34696  86.1855  27.3258 0074124 165.9902 260.6870 14.65143747866797"}}, "geometry": {"type": "Point", "coordinates": [-154.19172184894302, 13.32204961480593]}}, {"type": "Feature", "properties": {"norad_id": 34765, "name": "IRIDIUM 33 DEB", "group": "iridium-33-debris", "lat": -81.5562322314837, "lon": -122.43966771131856, "alt_km": 758.3138121209631, "timestamp": "2025-12-14T11:29:50.445679+00:00", "meta": {"OBJECT_NAME": "IRIDIUM 33 DEB", "OBJECT_ID": "1997-051LJ", "EPOCH": "2025-12-13T02:44:34.828800", "MEAN_MOTION": 14.40467179, "ECCENTRICITY": 0.00154785, "INCLINATION": 86.3397, "RA_OF_ASC_NODE": 32.601, "ARG_OF_PERICENTER": 210.1302, "MEAN_ANOMALY": 179.3412, "EPHEMERIS_TYPE": 0, "CLASSIFICATION_TYPE": "U", "NORAD_CAT_ID": 34765, "ELEMENT_SET_NO": 999, "REV_AT_EPOCH": 87619, "BSTAR": 0.00062555047, "MEAN_MOTION_DOT": 2.01e-05, "MEAN_MOTION_DDOT": 0}, "tle": {"line1": "1 34765U 97051LJ  25347.11429200  .00002010  00000+0  62555-3 0  9995", "line2": "2 34765  86.3397  32.6010 0015478 210.1302 179.3412 14.40467179876190"}}, "geometry": {"type": "Point", "coordinates": [-122.43966771131856, -81.5562322314837]}}]}